[{"OBJECT_NAME":"SWARM B","OBJECT_ID":"2013-067A","EPOCH":"2026-03-09T22:20:48.706656","MEAN_MOTION":15.27862638,"ECCENTRICITY":0.00036996,"INCLINATION":87.749,"RA_OF_ASC_NODE":12.4162,"ARG_OF_PERICENTER":86.3179,"MEAN_ANOMALY":273.8493,"EPHEMERIS_TYPE":0,"CLASSIFICATION_TYPE":"U","NORAD_CAT_ID":39451,"ELEMENT_SET_NO":999,"REV_AT_EPOCH":66808,"BSTAR":0.00020534236,"MEAN_MOTION_DOT":5.616e-5,"MEAN_MOTION_DDOT":0},{"OBJECT_NAME":"STARLINK-36525","OBJECT_ID":"2026-008F","EPOCH":"2026-03-09T09:05:35.382336","MEAN_MOTION":15.27594618,"ECCENTRICITY":3.984e-5,"INCLINATION":42.9969,"RA_OF_ASC_NODE":207.0748,"ARG_OF_PERICENTER":244.5603,"MEAN_ANOMALY":115.5208,"EPHEMERIS_TYPE":0,"CLASSIFICATION_TYPE":"U","NORAD_CAT_ID":67450,"ELEMENT_SET_NO":999,"REV_AT_EPOCH":952,"BSTAR":0.0015360749,"MEAN_MOTION_DOT":0.00042269,"MEAN_MOTION_DDOT":0}]
